[{"OBJECT_NAME":"STARLINK-31442","OBJECT_ID":"2024-098B","EPOCH":"2026-03-08T23:43:37.288128","MEAN_MOTION":15.27569616,"ECCENTRICITY":0.00012729,"INCLINATION":43.004,"RA_OF_ASC_NODE":285.8538,"ARG_OF_PERICENTER":275.8834,"MEAN_ANOMALY":84.1873,"EPHEMERIS_TYPE":0,"CLASSIFICATION_TYPE":"U","NORAD_CAT_ID":59859,"ELEMENT_SET_NO":999,"REV_AT_EPOCH":10169,"BSTAR":-1.6929042e-5,"MEAN_MOTION_DOT":-7.28e-6,"MEAN_MOTION_DDOT":0},{"OBJECT_NAME":"XCUBE-1","OBJECT_ID":"2024-247Z","EPOCH":"2026-03-09T11:35:28.885344","MEAN_MOTION":15.27910558,"ECCENTRICITY":0.00052355,"INCLINATION":44.9938,"RA_OF_ASC_NODE":117.7807,"ARG_OF_PERICENTER":331.1499,"MEAN_ANOMALY":28.9094,"EPHEMERIS_TYPE":0,"CLASSIFICATION_TYPE":"U","NORAD_CAT_ID":62400,"ELEMENT_SET_NO":999,"REV_AT_EPOCH":6770,"BSTAR":0.00036224252,"MEAN_MOTION_DOT":9.773e-5,"MEAN_MOTION_DDOT":0}]
